STARLINK-11528 [DTC]    
1 62521U 25004L   26063.46944508  .00400680  00000+0  29680-2 0  9998
2 62521  43.0001 102.5362 0001875  15.1661 344.9263 15.70920039 66386
STARLINK-11516 [DTC]    
1 62522U 25004M   26063.24682681  .00280201  00000+0  21082-2 0  9999
2 62522  42.9982 103.4319 0002129 171.2761 188.8144 15.70909923 66352
STARLINK-11527 [DTC]    
1 62523U 25004N   26063.49055106  .00383007  00000+0  28430-2 0  9995
2 62523  42.9997 101.8136 0000920 308.0120  52.0664 15.70922632 66399
STARLINK-32748          
1 62524U 25004P   26062.88970850  .00029971  00000+0  10933-2 0  9996
2 62524  42.9960 252.4498 0000621 279.5621  80.5160 15.27607783 65575
STARLINK-32777          
1 62525U 25004Q   26063.51801881  .00039518  00000+0  14365-2 0  9996
2 62525  42.9972 249.4273 0000824 215.1748 144.9049 15.27612489 65667
STARLINK-32741          
1 62526U 25004R   26063.50693921  .00038729  00000+0  14083-2 0  9990
2 62526  42.9960 245.8798 0000719 230.5983 129.4805 15.27609228 65702
STARLINK-32754          
1 62527U 25004S   26063.49360288  .00050586  00000+0  18328-2 0  9997
2 62527  43.0057 249.2461 0000935 243.9741 116.1015 15.27623385 64713
STARLINK-32786          
1 62528U 25004T   26063.52560576  .00033915  00000+0  12371-2 0  9993
2 62528  42.9992 248.6208 0001945 281.1906  78.8727 15.27559139 64721
STARLINK-32789          
1 62529U 25004U   26063.50002392  .00036278  00000+0  13203-2 0  9999
2 62529  43.0028 249.2852 0001615 236.9553 123.1144 15.27605728 65663
STARLINK-32791          
1 62530U 25004V   26063.48591397  .00041799  00000+0  15182-2 0  9998
2 62530  42.9991 249.1778 0002848 292.1397  67.9152 15.27614145 65664
STARLINK-32785          
1 62531U 25004W   26063.50773186  .00039946  00000+0  14518-2 0  9993
2 62531  42.9963 249.3451 0001978 194.5624 165.5171 15.27613123 65666
STARLINK-11538 [DTC]    
1 62554U 25006A   26063.33094231  .00300666  00000+0  22440-2 0  9991
2 62554  43.0000 171.8355 0001479 221.0614 139.0143 15.71039751 65762
STARLINK-11534 [DTC]    
1 62555U 25006B   26063.33625392  .00373557  00000+0  27747-2 0  9994
2 62555  43.0002 171.8786 0001727 319.3929  40.6809 15.70935965 65766
STARLINK-11515 [DTC]    
1 62556U 25006C   26063.31513943  .00284635  00000+0  21293-2 0  9999
2 62556  42.9994 172.6030 0001636 237.9174 122.1535 15.71032779 65755
STARLINK-11478 [DTC]    
1 62557U 25006D   26063.35749183  .00060903  00000+0  47451-3 0  9996
2 62557  42.9978 172.0419 0002610 191.5313 168.5495 15.70844522 65762
STARLINK-11358 [DTC]    
1 62558U 25006E   26063.35217994  .00366888  00000+0  27410-2 0  9990
2 62558  43.0007 172.0049 0001069 273.8266  86.2480 15.70816414 65764
