[{"OBJECT_NAME":"STARLINK-11528 [DTC]","OBJECT_ID":"2025-004L","EPOCH":"2026-03-04T11:16:00.054912","MEAN_MOTION":15.70920039,"ECCENTRICITY":0.0001875,"INCLINATION":43.0001,"RA_OF_ASC_NODE":102.5362,"ARG_OF_PERICENTER":15.1661,"MEAN_ANOMALY":344.9263,"EPHEMERIS_TYPE":0,"CLASSIFICATION_TYPE":"U","NORAD_CAT_ID":62521,"ELEMENT_SET_NO":999,"REV_AT_EPOCH":6638,"BSTAR":0.002968,"MEAN_MOTION_DOT":0.0040068,"MEAN_MOTION_DDOT":0},{"OBJECT_NAME":"STARLINK-11516 [DTC]","OBJECT_ID":"2025-004M","EPOCH":"2026-03-04T05:55:25.836384","MEAN_MOTION":15.70909923,"ECCENTRICITY":0.0002129,"INCLINATION":42.9982,"RA_OF_ASC_NODE":103.4319,"ARG_OF_PERICENTER":171.2761,"MEAN_ANOMALY":188.8144,"EPHEMERIS_TYPE":0,"CLASSIFICATION_TYPE":"U","NORAD_CAT_ID":62522,"ELEMENT_SET_NO":999,"REV_AT_EPOCH":6635,"BSTAR":0.0021082,"MEAN_MOTION_DOT":0.00280201,"MEAN_MOTION_DDOT":0},{"OBJECT_NAME":"STARLINK-11527 [DTC]","OBJECT_ID":"2025-004N","EPOCH":"2026-03-04T11:46:23.611584","MEAN_MOTION":15.70922632,"ECCENTRICITY":9.2e-5,"INCLINATION":42.9997,"RA_OF_ASC_NODE":101.8136,"ARG_OF_PERICENTER":308.012,"MEAN_ANOMALY":52.0664,"EPHEMERIS_TYPE":0,"CLASSIFICATION_TYPE":"U","NORAD_CAT_ID":62523,"ELEMENT_SET_NO":999,"REV_AT_EPOCH":6639,"BSTAR":0.002843,"MEAN_MOTION_DOT":0.00383007,"MEAN_MOTION_DDOT":0},{"OBJECT_NAME":"STARLINK-32748","OBJECT_ID":"2025-004P","EPOCH":"2026-03-03T21:21:10.814400","MEAN_MOTION":15.27607783,"ECCENTRICITY":6.21e-5,"INCLINATION":42.996,"RA_OF_ASC_NODE":252.4498,"ARG_OF_PERICENTER":279.5621,"MEAN_ANOMALY":80.516,"EPHEMERIS_TYPE":0,"CLASSIFICATION_TYPE":"U","NORAD_CAT_ID":62524,"ELEMENT_SET_NO":999,"REV_AT_EPOCH":6557,"BSTAR":0.0010933,"MEAN_MOTION_DOT":0.00029971,"MEAN_MOTION_DDOT":0},{"OBJECT_NAME":"STARLINK-32777","OBJECT_ID":"2025-004Q","EPOCH":"2026-03-04T12:25:56.825184","MEAN_MOTION":15.27612489,"ECCENTRICITY":8.24e-5,"INCLINATION":42.9972,"RA_OF_ASC_NODE":249.4273,"ARG_OF_PERICENTER":215.1748,"MEAN_ANOMALY":144.9049,"EPHEMERIS_TYPE":0,"CLASSIFICATION_TYPE":"U","NORAD_CAT_ID":62525,"ELEMENT_SET_NO":999,"REV_AT_EPOCH":6566,"BSTAR":0.0014365,"MEAN_MOTION_DOT":0.00039518,"MEAN_MOTION_DDOT":0},{"OBJECT_NAME":"STARLINK-32741","OBJECT_ID":"2025-004R","EPOCH":"2026-03-04T12:09:59.547744","MEAN_MOTION":15.27609228,"ECCENTRICITY":7.19e-5,"INCLINATION":42.996,"RA_OF_ASC_NODE":245.8798,"ARG_OF_PERICENTER":230.5983,"MEAN_ANOMALY":129.4805,"EPHEMERIS_TYPE":0,"CLASSIFICATION_TYPE":"U","NORAD_CAT_ID":62526,"ELEMENT_SET_NO":999,"REV_AT_EPOCH":6570,"BSTAR":0.0014083,"MEAN_MOTION_DOT":0.00038729,"MEAN_MOTION_DDOT":0},{"OBJECT_NAME":"STARLINK-32754","OBJECT_ID":"2025-004S","EPOCH":"2026-03-04T11:50:47.288832","MEAN_MOTION":15.27623385,"ECCENTRICITY":9.35e-5,"INCLINATION":43.0057,"RA_OF_ASC_NODE":249.2461,"ARG_OF_PERICENTER":243.9741,"MEAN_ANOMALY":116.1015,"EPHEMERIS_TYPE":0,"CLASSIFICATION_TYPE":"U","NORAD_CAT_ID":62527,"ELEMENT_SET_NO":999,"REV_AT_EPOCH":6471,"BSTAR":0.0018328,"MEAN_MOTION_DOT":0.00050586,"MEAN_MOTION_DDOT":0},{"OBJECT_NAME":"STARLINK-32786","OBJECT_ID":"2025-004T","EPOCH":"2026-03-04T12:36:52.337664","MEAN_MOTION":15.27559139,"ECCENTRICITY":0.0001945,"INCLINATION":42.9992,"RA_OF_ASC_NODE":248.6208,"ARG_OF_PERICENTER":281.1906,"MEAN_ANOMALY":78.8727,"EPHEMERIS_TYPE":0,"CLASSIFICATION_TYPE":"U","NORAD_CAT_ID":62528,"ELEMENT_SET_NO":999,"REV_AT_EPOCH":6472,"BSTAR":0.0012371,"MEAN_MOTION_DOT":0.00033915,"MEAN_MOTION_DDOT":0},{"OBJECT_NAME":"STARLINK-32789","OBJECT_ID":"2025-004U","EPOCH":"2026-03-04T12:00:02.066688","MEAN_MOTION":15.27605728,"ECCENTRICITY":0.0001615,"INCLINATION":43.0028,"RA_OF_ASC_NODE":249.2852,"ARG_OF_PERICENTER":236.9553,"MEAN_ANOMALY":123.1144,"EPHEMERIS_TYPE":0,"CLASSIFICATION_TYPE":"U","NORAD_CAT_ID":62529,"ELEMENT_SET_NO":999,"REV_AT_EPOCH":6566,"BSTAR":0.0013203,"MEAN_MOTION_DOT":0.00036278,"MEAN_MOTION_DDOT":0},{"OBJECT_NAME":"STARLINK-32791","OBJECT_ID":"2025-004V","EPOCH":"2026-03-04T11:39:42.967008","MEAN_MOTION":15.27614145,"ECCENTRICITY":0.0002848,"INCLINATION":42.9991,"RA_OF_ASC_NODE":249.1778,"ARG_OF_PERICENTER":292.1397,"MEAN_ANOMALY":67.9152,"EPHEMERIS_TYPE":0,"CLASSIFICATION_TYPE":"U","NORAD_CAT_ID":62530,"ELEMENT_SET_NO":999,"REV_AT_EPOCH":6566,"BSTAR":0.0015182,"MEAN_MOTION_DOT":0.00041799,"MEAN_MOTION_DDOT":0},{"OBJECT_NAME":"STARLINK-32785","OBJECT_ID":"2025-004W","EPOCH":"2026-03-04T12:11:08.032704","MEAN_MOTION":15.27613123,"ECCENTRICITY":0.0001978,"INCLINATION":42.9963,"RA_OF_ASC_NODE":249.3451,"ARG_OF_PERICENTER":194.5624,"MEAN_ANOMALY":165.5171,"EPHEMERIS_TYPE":0,"CLASSIFICATION_TYPE":"U","NORAD_CAT_ID":62531,"ELEMENT_SET_NO":999,"REV_AT_EPOCH":6566,"BSTAR":0.0014518,"MEAN_MOTION_DOT":0.00039946,"MEAN_MOTION_DDOT":0},{"OBJECT_NAME":"STARLINK-11538 [DTC]","OBJECT_ID":"2025-006A","EPOCH":"2026-03-04T07:56:33.415584","MEAN_MOTION":15.71039751,"ECCENTRICITY":0.0001479,"INCLINATION":43,"RA_OF_ASC_NODE":171.8355,"ARG_OF_PERICENTER":221.0614,"MEAN_ANOMALY":139.0143,"EPHEMERIS_TYPE":0,"CLASSIFICATION_TYPE":"U","NORAD_CAT_ID":62554,"ELEMENT_SET_NO":999,"REV_AT_EPOCH":6576,"BSTAR":0.002244,"MEAN_MOTION_DOT":0.00300666,"MEAN_MOTION_DDOT":0},{"OBJECT_NAME":"STARLINK-11534 [DTC]","OBJECT_ID":"2025-006B","EPOCH":"2026-03-04T08:04:12.338688","MEAN_MOTION":15.70935965,"ECCENTRICITY":0.0001727,"INCLINATION":43.0002,"RA_OF_ASC_NODE":171.8786,"ARG_OF_PERICENTER":319.3929,"MEAN_ANOMALY":40.6809,"EPHEMERIS_TYPE":0,"CLASSIFICATION_TYPE":"U","NORAD_CAT_ID":62555,"ELEMENT_SET_NO":999,"REV_AT_EPOCH":6576,"BSTAR":0.0027747,"MEAN_MOTION_DOT":0.00373557,"MEAN_MOTION_DDOT":0},{"OBJECT_NAME":"STARLINK-11515 [DTC]","OBJECT_ID":"2025-006C","EPOCH":"2026-03-04T07:33:48.046752","MEAN_MOTION":15.71032779,"ECCENTRICITY":0.0001636,"INCLINATION":42.9994,"RA_OF_ASC_NODE":172.603,"ARG_OF_PERICENTER":237.9174,"MEAN_ANOMALY":122.1535,"EPHEMERIS_TYPE":0,"CLASSIFICATION_TYPE":"U","NORAD_CAT_ID":62556,"ELEMENT_SET_NO":999,"REV_AT_EPOCH":6575,"BSTAR":0.0021293,"MEAN_MOTION_DOT":0.00284635,"MEAN_MOTION_DDOT":0},{"OBJECT_NAME":"STARLINK-11478 [DTC]","OBJECT_ID":"2025-006D","EPOCH":"2026-03-04T08:34:47.294112","MEAN_MOTION":15.70844522,"ECCENTRICITY":0.000261,"INCLINATION":42.9978,"RA_OF_ASC_NODE":172.0419,"ARG_OF_PERICENTER":191.5313,"MEAN_ANOMALY":168.5495,"EPHEMERIS_TYPE":0,"CLASSIFICATION_TYPE":"U","NORAD_CAT_ID":62557,"ELEMENT_SET_NO":999,"REV_AT_EPOCH":6576,"BSTAR":0.00047451,"MEAN_MOTION_DOT":0.00060903,"MEAN_MOTION_DDOT":0},{"OBJECT_NAME":"STARLINK-11358 [DTC]","OBJECT_ID":"2025-006E","EPOCH":"2026-03-04T08:27:08.346816","MEAN_MOTION":15.70816414,"ECCENTRICITY":0.0001069,"INCLINATION":43.0007,"RA_OF_ASC_NODE":172.0049,"ARG_OF_PERICENTER":273.8266,"MEAN_ANOMALY":86.248,"EPHEMERIS_TYPE":0,"CLASSIFICATION_TYPE":"U","NORAD_CAT_ID":62558,"ELEMENT_SET_NO":999,"REV_AT_EPOCH":6576,"BSTAR":0.002741,"MEAN_MOTION_DOT":0.00366888,"MEAN_MOTION_DDOT":0}]
